[{"OBJECT_NAME":"SALSAT","OBJECT_ID":"2020-068K","EPOCH":"2026-03-09T22:26:21.804576","MEAN_MOTION":15.28191989,"ECCENTRICITY":0.00082652,"INCLINATION":97.8859,"RA_OF_ASC_NODE":66.0795,"ARG_OF_PERICENTER":295.8051,"MEAN_ANOMALY":64.2334,"EPHEMERIS_TYPE":0,"CLASSIFICATION_TYPE":"U","NORAD_CAT_ID":46495,"ELEMENT_SET_NO":999,"REV_AT_EPOCH":30019,"BSTAR":0.00040842582,"MEAN_MOTION_DOT":0.00011156,"MEAN_MOTION_DDOT":0},{"OBJECT_NAME":"STARLINK-35602","OBJECT_ID":"2025-257Z","EPOCH":"2026-03-09T16:35:59.042976","MEAN_MOTION":15.30189236,"ECCENTRICITY":9.482e-5,"INCLINATION":53.158,"RA_OF_ASC_NODE":217.0219,"ARG_OF_PERICENTER":66.8442,"MEAN_ANOMALY":293.2658,"EPHEMERIS_TYPE":0,"CLASSIFICATION_TYPE":"U","NORAD_CAT_ID":66403,"ELEMENT_SET_NO":999,"REV_AT_EPOCH":1973,"BSTAR":0.0012900137,"MEAN_MOTION_DOT":0.0003803,"MEAN_MOTION_DDOT":0}]
